CCSDS_OMM_VERS,COMMENT,CREATION_DATE,ORIGINATOR,OBJECT_NAME,OBJECT_ID,CENTER_NAME,REF_FRAME,TIME_SYSTEM,MEAN_ELEMENT_THEORY,EPOCH,MEAN_MOTION,ECCENTRICITY,INCLINATION,RA_OF_ASC_NODE,ARG_OF_PERICENTER,MEAN_ANOMALY,EPHEMERIS_TYPE,CLASSIFICATION_TYPE,NORAD_CAT_ID,ELEMENT_SET_NO,REV_AT_EPOCH,BSTAR,MEAN_MOTION_DOT,MEAN_MOTION_DDOT,SEMIMAJOR_AXIS,PERIOD,APOAPSIS,PERIAPSIS,OBJECT_TYPE,RCS_SIZE,COUNTRY_CODE,LAUNCH_DATE,SITE,DECAY_DATE,FILE,GP_ID,TLE_LINE0,TLE_LINE1,TLE_LINE2
2,GENERATED VIA SPACE-TRACK.ORG API,2023-02-23T03:18:46,18 SPCS,OBJECT K,2023-001K,EARTH,TEME,UTC,SGP4,2023-02-22T03:24:08.799264,15.1344881,0.0011931,97.4939,114.4151,58.4855,301.754,0,U,55018,999,764,0.00064121,0.00011426,0,6903.829,95.147,533.931,517.457,UNKNOWN,MEDIUM,TBD,2023-01-03,AFETR,,3825529,226476723,0 OBJECT K,1 55018U 23001K   23053.14176851  .00011426  00000-0  64121-3 0  9992,2 55018  97.4939 114.4151 0011931  58.4855 301.7540 15.13448810  7641
2,GENERATED VIA SPACE-TRACK.ORG API,2023-02-23T18:48:24,18 SPCS,OBJECT K,2023-001K,EARTH,TEME,UTC,SGP4,2023-02-23T03:12:14.558112,15.1347453,0.0011803,97.4934,115.3903,55.174,305.06,0,U,55018,999,779,0.00072414,0.00012923,0,6903.751,95.145,533.764,517.467,UNKNOWN,MEDIUM,TBD,2023-01-03,AFETR,,3828819,226570043,0 OBJECT K,1 55018U 23001K   23054.13350183  .00012923  00000-0  72414-3 0  9991,2 55018  97.4934 115.3903 0011803  55.1740 305.0600 15.13474530  7794
2,GENERATED VIA SPACE-TRACK.ORG API,2023-02-23T09:16:12,18 SPCS,OBJECT K,2023-001K,EARTH,TEME,UTC,SGP4,2023-02-23T03:12:14.558112,15.1347453,0.0011803,97.4934,115.3903,55.174,305.06,0,U,55018,999,779,0.00072414,0.00012923,0,6903.751,95.145,533.764,517.467,UNKNOWN,MEDIUM,TBD,2023-01-03,AFETR,,3826909,226505126,0 OBJECT K,1 55018U 23001K   23054.13350183  .00012923  00000-0  72414-3 0  9991,2 55018  97.4934 115.3903 0011803  55.1740 305.0600 15.13474530  7794
2,GENERATED VIA SPACE-TRACK.ORG API,2023-02-24T05:58:46,18 SPCS,OBJECT K,2023-001K,EARTH,TEME,UTC,SGP4,2023-02-23T15:53:53.043936,15.13487454,0.0011733,97.4932,115.9105,53.3453,306.8855,0,U,55018,999,787,0.00071951,0.00012844,0,6903.711,95.144,533.676,517.476,UNKNOWN,MEDIUM,TBD,2023-01-03,AFETR,,3830532,226632273,0 OBJECT K,1 55018U 23001K   23054.66241949  .00012844  00000-0  71951-3 0  9995,2 55018  97.4932 115.9105 0011733  53.3453 306.8855 15.13487454  7874
2,GENERATED VIA SPACE-TRACK.ORG API,2023-02-24T17:50:44,18 SPCS,KSF3-C,2023-001K,EARTH,TEME,UTC,SGP4,2023-02-24T10:56:19.934592,15.13510203,0.0011664,97.4932,116.6907,50.7141,309.5123,0,U,55018,999,799,0.00078895,0.00014101,0,6903.642,95.143,533.56,517.455,PAYLOAD,MEDIUM,TBD,2023-01-03,AFETR,,3832867,226708862,0 KSF3-C,1 55018U 23001K   23055.45578628  .00014101  00000-0  78895-3 0  9992,2 55018  97.4932 116.6907 0011664  50.7141 309.5123 15.13510203  7990
2,GENERATED VIA SPACE-TRACK.ORG API,2023-02-24T18:46:13,18 SPCS,KSF3-C,2023-001K,EARTH,TEME,UTC,SGP4,2023-02-24T10:56:19.934592,15.13510203,0.0011664,97.4932,116.6907,50.7141,309.5123,0,U,55018,999,799,0.00078895,0.00014101,0,6903.642,95.143,533.56,517.455,PAYLOAD,MEDIUM,LUXE,2023-01-03,AFETR,,3833046,226713533,0 KSF3-C,1 55018U 23001K   23055.45578628  .00014101  00000-0  78895-3 0  9992,2 55018  97.4932 116.6907 0011664  50.7141 309.5123 15.13510203  7990
2,GENERATED VIA SPACE-TRACK.ORG API,2023-02-25T05:29:33,18 SPCS,KSF3-C,2023-001K,EARTH,TEME,UTC,SGP4,2023-02-24T17:17:08.711808,15.1351431,0.0011617,97.4932,116.9508,49.7661,310.4585,0,U,55018,999,803,0.00063953,0.00011415,0,6903.63,95.143,533.515,517.475,PAYLOAD,MEDIUM,LUXE,2023-01-03,AFETR,,3835059,226779774,0 KSF3-C,1 55018U 23001K   23055.72023972  .00011415  00000-0  63953-3 0  9993,2 55018  97.4932 116.9508 0011617  49.7661 310.4585 15.13514310  8035
2,GENERATED VIA SPACE-TRACK.ORG API,2023-02-25T17:54:42,18 SPCS,KSF3-C,2023-001K,EARTH,TEME,UTC,SGP4,2023-02-25T02:48:21.668544,15.13523937,0.0011586,97.4931,117.3407,48.7372,311.4856,0,U,55018,999,809,0.00060631,0.00010821,0,6903.6,95.142,533.464,517.467,PAYLOAD,MEDIUM,LUXE,2023-01-03,AFETR,,3837605,226860564,0 KSF3-C,1 55018U 23001K   23056.11691746  .00010821  00000-0  60631-3 0  9997,2 55018  97.4931 117.3407 0011586  48.7372 311.4856 15.13523937  8093
2,GENERATED VIA SPACE-TRACK.ORG API,2023-02-26T04:49:34,18 SPCS,KSF3-C,2023-001K,EARTH,TEME,UTC,SGP4,2023-02-25T17:05:10.733856,15.13538189,0.0011558,97.4932,117.9259,46.8409,313.3787,0,U,55018,999,818,0.00062354,0.00011135,0,6903.557,95.141,533.401,517.443,PAYLOAD,MEDIUM,LUXE,2023-01-03,AFETR,,3839003,226916144,0 KSF3-C,1 55018U 23001K   23056.71192979  .00011135  00000-0  62354-3 0  9990,2 55018  97.4932 117.9259 0011558  46.8409 313.3787 15.13538189  8183
2,GENERATED VIA SPACE-TRACK.ORG API,2023-02-25T22:56:14,18 SPCS,KSF3-C,2023-001K,EARTH,TEME,UTC,SGP4,2023-02-25T17:05:10.733856,15.13538189,0.0011558,97.4932,117.9259,46.8409,313.3787,0,U,55018,999,818,0.00062354,0.00011135,0,6903.557,95.141,533.401,517.443,PAYLOAD,MEDIUM,LUXE,2023-01-03,AFETR,,3838272,226875760,0 KSF3-C,1 55018U 23001K   23056.71192979  .00011135  00000-0  62354-3 0  9990,2 55018  97.4932 117.9259 0011558  46.8409 313.3787 15.13538189  8183
2,GENERATED VIA SPACE-TRACK.ORG API,2023-02-26T18:23:40,18 SPCS,KSF3-C,2023-001K,EARTH,TEME,UTC,SGP4,2023-02-26T02:36:23.172192,15.13550336,0.0011598,97.4935,118.3164,45.7295,314.4886,0,U,55018,999,824,0.00074642,0.00013351,0,6903.52,95.141,533.392,517.378,PAYLOAD,MEDIUM,LUXE,2023-01-03,AFETR,,3841853,227009562,0 KSF3-C,1 55018U 23001K   23057.10860153  .00013351  00000-0  74642-3 0  9995,2 55018  97.4935 118.3164 0011598  45.7295 314.4886 15.13550336  8248
2,GENERATED VIA SPACE-TRACK.ORG API,2023-02-27T03:14:21,18 SPCS,KSF3-C,2023-001K,EARTH,TEME,UTC,SGP4,2023-02-26T21:38:47.250528,15.13572275,0.0011575,97.4936,119.0967,43.4314,316.7827,0,U,55018,999,836,0.000777,0.0001391,0,6903.453,95.139,533.309,517.328,PAYLOAD,MEDIUM,LUXE,2023-01-03,AFETR,,3843368,227069968,0 KSF3-C,1 55018U 23001K   23057.90193577  .00013910  00000-0  77700-3 0  9991,2 55018  97.4936 119.0967 0011575  43.4314 316.7827 15.13572275  8369
2,GENERATED VIA SPACE-TRACK.ORG API,2023-02-27T19:47:07,18 SPCS,KSF3-C,2023-001K,EARTH,TEME,UTC,SGP4,2023-02-27T03:59:35.023776,15.13580956,0.0011534,97.4937,119.3568,42.4932,317.719,0,U,55018,999,840,0.00080201,0.00014364,0,6903.427,95.139,533.254,517.33,PAYLOAD,MEDIUM,LUXE,2023-01-03,AFETR,,3846396,227162549,0 KSF3-C,1 55018U 23001K   23058.16637759  .00014364  00000-0  80201-3 0  9999,2 55018  97.4937 119.3568 0011534  42.4932 317.7190 15.13580956  8404
2,GENERATED VIA SPACE-TRACK.ORG API,2023-02-27T07:36:13,18 SPCS,KSF3-C,2023-001K,EARTH,TEME,UTC,SGP4,2023-02-27T03:59:35.023776,15.13580956,0.0011534,97.4937,119.3568,42.4932,317.719,0,U,55018,999,840,0.00080201,0.00014364,0,6903.427,95.139,533.254,517.33,PAYLOAD,MEDIUM,LUXE,2023-01-03,AFETR,,3844293,227092791,0 KSF3-C,1 55018U 23001K   23058.16637759  .00014364  00000-0  80201-3 0  9999,2 55018  97.4937 119.3568 0011534  42.4932 317.7190 15.13580956  8404
2,GENERATED VIA SPACE-TRACK.ORG API,2023-02-28T02:53:13,18 SPCS,KSF3-C,2023-001K,EARTH,TEME,UTC,SGP4,2023-02-27T21:26:45.361248,15.13619423,0.0011525,97.4936,120.0723,40.422,319.7865,0,U,55018,999,851,0.0012701,0.00022837,0,6903.31,95.136,533.131,517.219,PAYLOAD,MEDIUM,LUXE,2023-01-03,AFETR,,3846812,227198493,0 KSF3-C,1 55018U 23001K   23058.89358057  .00022837  00000-0  12701-2 0  9993,2 55018  97.4936 120.0723 0011525  40.4220 319.7865 15.13619423  8518
2,GENERATED VIA SPACE-TRACK.ORG API,2023-02-28T17:24:27,18 SPCS,KSF3-C,2023-001K,EARTH,TEME,UTC,SGP4,2023-02-28T03:47:32.390592,15.13632031,0.0011509,97.4937,120.3324,39.5833,320.6237,0,U,55018,999,855,0.0012533,0.00022541,0,6903.272,95.135,533.082,517.192,PAYLOAD,MEDIUM,LUXE,2023-01-03,AFETR,,3847542,227241528,0 KSF3-C,1 55018U 23001K   23059.15801378  .00022541  00000-0  12533-2 0  9997,2 55018  97.4937 120.3324 0011509  39.5833 320.6237 15.13632031  8558
2,GENERATED VIA SPACE-TRACK.ORG API,2023-02-28T08:16:12,18 SPCS,KSF3-C,2023-001K,EARTH,TEME,UTC,SGP4,2023-02-28T03:47:32.390592,15.13632031,0.0011509,97.4937,120.3324,39.5833,320.6237,0,U,55018,999,855,0.0012533,0.00022541,0,6903.272,95.135,533.082,517.192,PAYLOAD,MEDIUM,LUXE,2023-01-03,AFETR,,3847194,227206900,0 KSF3-C,1 55018U 23001K   23059.15801378  .00022541  00000-0  12533-2 0  9997,2 55018  97.4937 120.3324 0011509  39.5833 320.6237 15.13632031  8558
2,GENERATED VIA SPACE-TRACK.ORG API,2023-03-01T03:01:27,18 SPCS,KSF3-C,2023-001K,EARTH,TEME,UTC,SGP4,2023-02-28T21:14:40.909344,15.13655533,0.0011425,97.4935,121.0477,37.3308,322.8715,0,U,55018,999,866,0.00082664,0.00014839,0,6903.2,95.134,532.952,517.178,PAYLOAD,MEDIUM,LUXE,2023-01-03,AFETR,,3847656,227269408,0 KSF3-C,1 55018U 23001K   23059.88519571  .00014839  00000-0  82664-3 0  9992,2 55018  97.4935 121.0477 0011425  37.3308 322.8715 15.13655533  8662
2,GENERATED VIA SPACE-TRACK.ORG API,2023-03-01T15:06:12,18 SPCS,KSF3-C,2023-001K,EARTH,TEME,UTC,SGP4,2023-03-01T03:35:27.389184,15.13664504,0.0011402,97.4935,121.3078,36.4904,323.7103,0,U,55018,999,870,0.00076987,0.00013817,0,6903.173,95.133,532.909,517.167,PAYLOAD,MEDIUM,LUXE,2023-01-03,AFETR,,3848461,227288680,0 KSF3-C,1 55018U 23001K   23060.14962256  .00013817  00000-0  76987-3 0  9991,2 55018  97.4935 121.3078 0011402  36.4904 323.7103 15.13664504  8703
2,GENERATED VIA SPACE-TRACK.ORG API,2023-03-02T02:30:55,18 SPCS,KSF3-C,2023-001K,EARTH,TEME,UTC,SGP4,2023-03-01T21:02:34.617120,15.13685408,0.0011314,97.4933,122.0231,33.8606,326.3346,0,U,55018,999,881,0.00070694,0.00012687,0,6903.109,95.132,532.785,517.164,PAYLOAD,MEDIUM,LUXE,2023-01-03,AFETR,,3848834,227321384,0 KSF3-C,1 55018U 23001K   23060.87678955  .00012687  00000-0  70694-3 0  9994,2 55018  97.4933 122.0231 0011314  33.8606 326.3346 15.13685408  8818
